[{"OBJECT_NAME":"EOSSAT-1","OBJECT_ID":"2023-001AW","EPOCH":"2026-03-09T17:40:07.010400","MEAN_MOTION":15.32339828,"ECCENTRICITY":0.00112629,"INCLINATION":97.3357,"RA_OF_ASC_NODE":130.2294,"ARG_OF_PERICENTER":110.3168,"MEAN_ANOMALY":249.9285,"EPHEMERIS_TYPE":0,"CLASSIFICATION_TYPE":"U","NORAD_CAT_ID":55053,"ELEMENT_SET_NO":999,"REV_AT_EPOCH":17668,"BSTAR":0.00024844399,"MEAN_MOTION_DOT":7.695e-5,"MEAN_MOTION_DDOT":0},{"OBJECT_NAME":"STARLINK-31260","OBJECT_ID":"2024-020F","EPOCH":"2026-03-09T21:22:23.717856","MEAN_MOTION":15.30200171,"ECCENTRICITY":1.897e-5,"INCLINATION":53.1625,"RA_OF_ASC_NODE":321.3594,"ARG_OF_PERICENTER":190.3877,"MEAN_ANOMALY":169.712,"EPHEMERIS_TYPE":0,"CLASSIFICATION_TYPE":"U","NORAD_CAT_ID":58881,"ELEMENT_SET_NO":999,"REV_AT_EPOCH":11810,"BSTAR":0.0001446134,"MEAN_MOTION_DOT":3.927e-5,"MEAN_MOTION_DDOT":0}]
